{"type": "FeatureCollection", "features": [ {"type": "Feature", "properties": {"norad_id": 30546, "name": "FENGYUN 1C DEB", "group": "fengyun-1c-debris", "lat": 80.99764103489719, "lon": 121.16622843468986, "alt_km": 539.4279308974428, "timestamp": "2025-12-27T11:23:20.174673+00:00", "meta": {"OBJECT_NAME": "FENGYUN 1C DEB", "OBJECT_ID": "1999-025AKL", "EPOCH": "2025-12-27T01:58:25.345056", "MEAN_MOTION": 14.87369978, "ECCENTRICITY": 0.0092923, "INCLINATION": 98.9077, "RA_OF_ASC_NODE": 218.8427, "ARG_OF_PERICENTER": 116.8438, "MEAN_ANOMALY": 35.513, "EPHEMERIS_TYPE": 0, "CLASSIFICATION_TYPE": "U", "NORAD_CAT_ID": 30546, "ELEMENT_SET_NO": 999, "REV_AT_EPOCH": 670, "BSTAR": 0.00086717, "MEAN_MOTION_DOT": 8.419e-05, "MEAN_MOTION_DDOT": 0}, "tle": {"line1": "1 30546U 99025AKL 25361.08223779  .00008419  00000+0  86717-3 0  9991", "line2": "2 30546  98.9077 218.8427 0092923 116.8438  35.5130 14.87369978  6700"}}, "geometry": {"type": "Point", "coordinates": [121.16622843468986, 80.99764103489719]}}, {"type": "Feature", "properties": {"norad_id": 30547, "name": "FENGYUN 1C DEB", "group": "fengyun-1c-debris", "lat": 61.08886071138754, "lon": -171.48684261165374, "alt_km": 784.2457088766696, "timestamp": "2025-12-27T11:23:20.174683+00:00", "meta": {"OBJECT_NAME": "FENGYUN 1C DEB", "OBJECT_ID": "1999-025AKM", "EPOCH": "2025-12-27T03:19:29.034336", "MEAN_MOTION": 14.37774844, "ECCENTRICITY": 0.0095753, "INCLINATION": 98.9016, "RA_OF_ASC_NODE": 204.6511, "ARG_OF_PERICENTER": 174.793, "MEAN_ANOMALY": 310.4767, "EPHEMERIS_TYPE": 0, "CLASSIFICATION_TYPE": "U", "NORAD_CAT_ID": 30547, "ELEMENT_SET_NO": 999, "REV_AT_EPOCH": 98929, "BSTAR": 0.00028775, "MEAN_MOTION_DOT": 8.65e-06, "MEAN_MOTION_DDOT": 0}, "tle": {"line1": "1 30547U 99025AKM 25361.13853049  .00000865  00000+0  28775-3 0  9994", "line2": "2 30547  98.9016 204.6511 0095753 174.7930 310.4767 14.37774844989297"}}, "geometry": {"type": "Point", "coordinates": [-171.48684261165374, 61.08886071138754]}}, {"type": "Feature", "properties": {"norad_id": 30548, "name": "FENGYUN 1C DEB", "group": "fengyun-1c-debris", "lat": 70.41430752637146, "lon": 109.17047328741867, "alt_km": 843.0183357299575, "timestamp": "2025-12-27T11:23:20.174693+00:00", "meta": {"OBJECT_NAME": "FENGYUN 1C DEB", "OBJECT_ID": "1999-025AKN", "EPOCH": "2025-12-25T12:21:47.176704", "MEAN_MOTION": 14.26999076, "ECCENTRICITY": 0.0067663, "INCLINATION": 99.6818, "RA_OF_ASC_NODE": 258.3315, "ARG_OF_PERICENTER": 299.9173, "MEAN_ANOMALY": 186.65, "EPHEMERIS_TYPE": 0, "CLASSIFICATION_TYPE": "U", "NORAD_CAT_ID": 30548, "ELEMENT_SET_NO": 999, "REV_AT_EPOCH": 14277, "BSTAR": 0.0020682, "MEAN_MOTION_DOT": 5.106e-05, "MEAN_MOTION_DDOT": 0}, "tle": {"line1": "1 30548U 99025AKN 25359.51512936  .00005106  00000+0  20682-2 0  9992", "line2": "2 30548  99.6818 258.3315 0067663 299.9173 186.6500 14.26999076142778"}}, "geometry": {"type": "Point", "coordinates": [109.17047328741867, 70.41430752637146]}}, {"type": "Feature", "properties": {"norad_id": 30549, "name": "FENGYUN 1C DEB", "group": "fengyun-1c-debris", "lat": -62.7346963214207, "lon": -75.98805936591008, "alt_km": 718.3138488511468, "timestamp": "2025-12-27T11:23:20.174703+00:00", "meta": {"OBJECT_NAME": "FENGYUN 1C DEB", "OBJECT_ID": "1999-025AKP", "EPOCH": "2025-12-27T01:38:26.392128", "MEAN_MOTION": 13.988436, "ECCENTRICITY": 0.028868, "INCLINATION": 98.4795, "RA_OF_ASC_NODE": 120.461, "ARG_OF_PERICENTER": 216.979, "MEAN_ANOMALY": 141.1167, "EPHEMERIS_TYPE": 0, "CLASSIFICATION_TYPE": "U", "NORAD_CAT_ID": 30549, "ELEMENT_SET_NO": 999, "REV_AT_EPOCH": 95494, "BSTAR": 0.003043, "MEAN_MOTION_DOT": 6.233e-05, "MEAN_MOTION_DDOT": 0}, "tle": {"line1": "1 30549U 99025AKP 25361.06836102  .00006233  00000+0  30430-2 0  9994", "line2": "2 30549  98.4795 120.4610 0288680 216.9790 141.1167 13.98843600954949"}}, "geometry": {"type": "Point", "coordinates": [-75.98805936591008, -62.7346963214207]}}, {"type": "Feature", "properties": {"norad_id": 30550, "name": "FENGYUN 1C DEB", "group": "fengyun-1c-debris", "lat": -56.16153014960358, "lon": 62.924583748213514, "alt_km": 802.3932725741579, "timestamp": "2025-12-27T11:23:20.174714+00:00", "meta": {"OBJECT_NAME": "FENGYUN 1C DEB", "OBJECT_ID": "1999-025AKQ", "EPOCH": "2025-12-25T15:35:41.474112", "MEAN_MOTION": 14.02503029, "ECCENTRICITY": 0.013086, "INCLINATION": 99.0535, "RA_OF_ASC_NODE": 254.8694, "ARG_OF_PERICENTER": 261.8153, "MEAN_ANOMALY": 127.6685, "EPHEMERIS_TYPE": 0, "CLASSIFICATION_TYPE": "U", "NORAD_CAT_ID": 30550, "ELEMENT_SET_NO": 999, "REV_AT_EPOCH": 95576, "BSTAR": 0.0028631, "MEAN_MOTION_DOT": 4.707e-05, "MEAN_MOTION_DDOT": 0}, "tle": {"line1": "1 30550U 99025AKQ 25359.64978558  .00004707  00000+0  28631-2 0  9993", "line2": "2 30550  99.0535 254.8694 0130860 261.8153 127.6685 14.02503029955761"}}, "geometry": {"type": "Point", "coordinates": [62.924583748213514, -56.16153014960358]}}, {"type": "Feature", "properties": {"norad_id": 30552, "name": "FENGYUN 1C DEB", "group": "fengyun-1c-debris", "lat": 32.41887015191822, "lon": -40.35679152306875, "alt_km": 702.269350296041, "timestamp": "2025-12-27T11:23:20.174746+00:00", "meta": {"OBJECT_NAME": "FENGYUN 1C DEB", "OBJECT_ID": "1999-025AKS", "EPOCH": "2025-12-27T04:06:47.096352", "MEAN_MOTION": 14.55127909, "ECCENTRICITY": 0.0015272, "INCLINATION": 98.8341, "RA_OF_ASC_NODE": 133.6547, "ARG_OF_PERICENTER": 212.2837, "MEAN_ANOMALY": 147.7425, "EPHEMERIS_TYPE": 0, "CLASSIFICATION_TYPE": "U", "NORAD_CAT_ID": 30552, "ELEMENT_SET_NO": 999, "REV_AT_EPOCH": 97862, "BSTAR": 0.0037606, "MEAN_MOTION_DOT": 0.0001625, "MEAN_MOTION_DDOT": 0}, "tle": {"line1": "1 30552U 99025AKS 25361.17137843  .00016250  00000+0  37606-2 0  9998", "line2": "2 30552  98.8341 133.6547 0015272 212.2837 147.7425 14.55127909978626"}}, "geometry": {"type": "Point", "coordinates": [-40.35679152306875, 32.41887015191822]}}, {"type": "Feature", "properties": {"norad_id": 30553, "name": "FENGYUN 1C DEB", "group": "fengyun-1c-debris", "lat": 55.89464764723024, "lon": 84.43652957562422, "alt_km": 637.9700683880201, "timestamp": "2025-12-27T11:23:20.174758+00:00", "meta": {"OBJECT_NAME": "FENGYUN 1C DEB", "OBJECT_ID": "1999-025AKT", "EPOCH": "2025-12-26T18:49:36.255360", "MEAN_MOTION": 14.72830585, "ECCENTRICITY": 0.00189239, "INCLINATION": 99.1257, "RA_OF_ASC_NODE": 97.3932, "ARG_OF_PERICENTER": 108.8957, "MEAN_ANOMALY": 251.43, "EPHEMERIS_TYPE": 0, "CLASSIFICATION_TYPE": "U", "NORAD_CAT_ID": 30553, "ELEMENT_SET_NO": 999, "REV_AT_EPOCH": 98680, "BSTAR": 0.0032942721, "MEAN_MOTION_DOT": 0.00021136, "MEAN_MOTION_DDOT": 0}, "tle": {"line1": "1 30553U 99025AKT 25360.78444740  .00021136  00000+0  32943-2 0  9990", "line2": "2 30553  99.1257  97.3932 0018923 108.8957 251.4300 14.72830585986804"}}, "geometry": {"type": "Point", "coordinates": [84.43652957562422, 55.89464764723024]}}, {"type": "Feature", "properties": {"norad_id": 30555, "name": "FENGYUN 1C DEB", "group": "fengyun-1c-debris", "lat": -15.321252519726892, "lon": 57.28726589001638, "alt_km": 840.4383548770702, "timestamp": "2025-12-27T11:23:20.174768+00:00", "meta": {"OBJECT_NAME": "FENGYUN 1C DEB", "OBJECT_ID": "1999-025AKV", "EPOCH": "2025-12-27T03:16:25.271904", "MEAN_MOTION": 14.2088803, "ECCENTRICITY": 0.0043459, "INCLINATION": 98.756, "RA_OF_ASC_NODE": 54.5323, "ARG_OF_PERICENTER": 229.9744, "MEAN_ANOMALY": 185.5289, "EPHEMERIS_TYPE": 0, "CLASSIFICATION_TYPE": "U", "NORAD_CAT_ID": 30555, "ELEMENT_SET_NO": 999, "REV_AT_EPOCH": 97140, "BSTAR": 0.00153, "MEAN_MOTION_DOT": 3.298e-05, "MEAN_MOTION_DDOT": 0}, "tle": {"line1": "1 30555U 99025AKV 25361.13640361  .00003298  00000+0  15300-2 0  9996", "line2": "2 30555  98.7560  54.5323 0043459 229.9744 185.5289 14.20888030971402"}}, "geometry": {"type": "Point", "coordinates": [57.28726589001638, -15.321252519726892]}}, {"type": "Feature", "properties": {"norad_id": 30556, "name": "FENGYUN 1C DEB", "group": "fengyun-1c-debris", "lat": 1.6195245895720563, "lon": 174.42261318540523, "alt_km": 844.0310979931955, "timestamp": "2025-12-27T11:23:20.174779+00:00", "meta": {"OBJECT_NAME": "FENGYUN 1C DEB", "OBJECT_ID": "1999-025AKW", "EPOCH": "2025-12-26T22:38:15.572256", "MEAN_MOTION": 14.01376274, "ECCENTRICITY": 0.0068878, "INCLINATION": 98.7808, "RA_OF_ASC_NODE": 353.6611, "ARG_OF_PERICENTER": 197.6235, "MEAN_ANOMALY": 181.9422, "EPHEMERIS_TYPE": 0, "CLASSIFICATION_TYPE": "U", "NORAD_CAT_ID": 30556, "ELEMENT_SET_NO": 999, "REV_AT_EPOCH": 96456, "BSTAR": 0.00025012, "MEAN_MOTION_DOT": 3.43e-06, "MEAN_MOTION_DDOT": 0}, "tle": {"line1": "1 30556U 99025AKW 25360.94323579  .00000343  00000+0  25012-3 0  9994", "line2": "2 30556  98.7808 353.6611 0068878 197.6235 181.9422 14.01376274964568"}}, "geometry": {"type": "Point", "coordinates": [174.42261318540523, 1.6195245895720563]}}, {"type": "Feature", "properties": {"norad_id": 30557, "name": "FENGYUN 1C DEB", "group": "fengyun-1c-debris", "lat": 78.81216985319469, "lon": 13.968021524387241, "alt_km": 864.3656779773855, "timestamp": "2025-12-27T11:23:20.174789+00:00", "meta": {"OBJECT_NAME": "FENGYUN 1C DEB", "OBJECT_ID": "1999-025AKX", "EPOCH": "2025-12-27T04:11:00.607776", "MEAN_MOTION": 14.10866821, "ECCENTRICITY": 0.0068888, "INCLINATION": 98.9191, "RA_OF_ASC_NODE": 66.2288, "ARG_OF_PERICENTER": 192.3743, "MEAN_ANOMALY": 167.5738, "EPHEMERIS_TYPE": 0, "CLASSIFICATION_TYPE": "U", "NORAD_CAT_ID": 30557, "ELEMENT_SET_NO": 999, "REV_AT_EPOCH": 96504, "BSTAR": 0.0015396, "MEAN_MOTION_DOT": 2.778e-05, "MEAN_MOTION_DDOT": 0}, "tle": {"line1": "1 30557U 99025AKX 25361.17431259  .00002778  00000+0  15396-2 0  9993", "line2": "2 30557  98.9191  66.2288 0068888 192.3743 167.5738 14.10866821965046"}}, "geometry": {"type": "Point", "coordinates": [13.968021524387241, 78.81216985319469]}}]}